[{"OBJECT_NAME":"KUIPER-00198","OBJECT_ID":"2026-030G","EPOCH":"2026-03-03T13:49:49.000512","MEAN_MOTION":15.3574316,"ECCENTRICITY":0.0002899,"INCLINATION":51.8809,"RA_OF_ASC_NODE":248.5954,"ARG_OF_PERICENTER":33.5772,"MEAN_ANOMALY":326.5397,"EPHEMERIS_TYPE":0,"CLASSIFICATION_TYPE":"U","NORAD_CAT_ID":67770,"ELEMENT_SET_NO":999,"REV_AT_EPOCH":415,"BSTAR":0.0010402286,"MEAN_MOTION_DOT":0.00036518,"MEAN_MOTION_DDOT":0},{"OBJECT_NAME":"KUIPER-00199","OBJECT_ID":"2026-030H","EPOCH":"2026-03-03T14:18:18.262080","MEAN_MOTION":15.34079384,"ECCENTRICITY":0.00102185,"INCLINATION":51.8795,"RA_OF_ASC_NODE":248.7206,"ARG_OF_PERICENTER":43.9006,"MEAN_ANOMALY":316.279,"EPHEMERIS_TYPE":0,"CLASSIFICATION_TYPE":"U","NORAD_CAT_ID":67771,"ELEMENT_SET_NO":999,"REV_AT_EPOCH":415,"BSTAR":0.0011004547,"MEAN_MOTION_DOT":0.00036696,"MEAN_MOTION_DDOT":0},{"OBJECT_NAME":"KUIPER-00200","OBJECT_ID":"2026-030J","EPOCH":"2026-03-03T15:06:12.221568","MEAN_MOTION":15.36748329,"ECCENTRICITY":0.00014952,"INCLINATION":51.8808,"RA_OF_ASC_NODE":248.2045,"ARG_OF_PERICENTER":206.8641,"MEAN_ANOMALY":153.2269,"EPHEMERIS_TYPE":0,"CLASSIFICATION_TYPE":"U","NORAD_CAT_ID":67772,"ELEMENT_SET_NO":999,"REV_AT_EPOCH":416,"BSTAR":0.0010706895,"MEAN_MOTION_DOT":0.00038852,"MEAN_MOTION_DDOT":0},{"OBJECT_NAME":"KUIPER-00203","OBJECT_ID":"2026-030K","EPOCH":"2026-03-03T14:00:03.000384","MEAN_MOTION":15.26054568,"ECCENTRICITY":0.00117348,"INCLINATION":51.8813,"RA_OF_ASC_NODE":248.9124,"ARG_OF_PERICENTER":48.3135,"MEAN_ANOMALY":161.7082,"EPHEMERIS_TYPE":0,"CLASSIFICATION_TYPE":"U","NORAD_CAT_ID":67773,"ELEMENT_SET_NO":999,"REV_AT_EPOCH":271,"BSTAR":-0.069298371,"MEAN_MOTION_DOT":-0.0164741,"MEAN_MOTION_DDOT":0},{"OBJECT_NAME":"KUIPER-00205","OBJECT_ID":"2026-030L","EPOCH":"2026-03-03T13:44:28.641408","MEAN_MOTION":15.36087003,"ECCENTRICITY":0.00023894,"INCLINATION":51.881,"RA_OF_ASC_NODE":248.5711,"ARG_OF_PERICENTER":4.1086,"MEAN_ANOMALY":355.992,"EPHEMERIS_TYPE":0,"CLASSIFICATION_TYPE":"U","NORAD_CAT_ID":67774,"ELEMENT_SET_NO":999,"REV_AT_EPOCH":415,"BSTAR":0.0011160811,"MEAN_MOTION_DOT":0.00039662,"MEAN_MOTION_DDOT":0},{"OBJECT_NAME":"KUIPER-00208","OBJECT_ID":"2026-030M","EPOCH":"2026-03-03T14:34:16.101120","MEAN_MOTION":15.32779406,"ECCENTRICITY":0.00144359,"INCLINATION":51.882,"RA_OF_ASC_NODE":248.7995,"ARG_OF_PERICENTER":45.228,"MEAN_ANOMALY":314.9876,"EPHEMERIS_TYPE":0,"CLASSIFICATION_TYPE":"U","NORAD_CAT_ID":67775,"ELEMENT_SET_NO":999,"REV_AT_EPOCH":415,"BSTAR":0.0003315889,"MEAN_MOTION_DOT":0.00010323,"MEAN_MOTION_DDOT":0},{"OBJECT_NAME":"KUIPER-00209","OBJECT_ID":"2026-030N","EPOCH":"2026-03-03T14:39:15.370848","MEAN_MOTION":15.31334966,"ECCENTRICITY":0.00133766,"INCLINATION":51.8812,"RA_OF_ASC_NODE":248.8193,"ARG_OF_PERICENTER":48.9025,"MEAN_ANOMALY":311.3112,"EPHEMERIS_TYPE":0,"CLASSIFICATION_TYPE":"U","NORAD_CAT_ID":67776,"ELEMENT_SET_NO":999,"REV_AT_EPOCH":415,"BSTAR":-0.00022701655,"MEAN_MOTION_DOT":-7.358e-5,"MEAN_MOTION_DDOT":0},{"OBJECT_NAME":"KUIPER-00213","OBJECT_ID":"2026-030P","EPOCH":"2026-03-03T14:35:10.194432","MEAN_MOTION":15.32473115,"ECCENTRICITY":0.0014919,"INCLINATION":51.8791,"RA_OF_ASC_NODE":248.7947,"ARG_OF_PERICENTER":47.0037,"MEAN_ANOMALY":313.2196,"EPHEMERIS_TYPE":0,"CLASSIFICATION_TYPE":"U","NORAD_CAT_ID":67777,"ELEMENT_SET_NO":999,"REV_AT_EPOCH":415,"BSTAR":0.00072474974,"MEAN_MOTION_DOT":0.00022834,"MEAN_MOTION_DDOT":0},{"OBJECT_NAME":"KUIPER-00214","OBJECT_ID":"2026-030Q","EPOCH":"2026-03-03T13:35:57.147360","MEAN_MOTION":15.36505345,"ECCENTRICITY":9.419e-5,"INCLINATION":51.8841,"RA_OF_ASC_NODE":248.5387,"ARG_OF_PERICENTER":202.385,"MEAN_ANOMALY":157.7095,"EPHEMERIS_TYPE":0,"CLASSIFICATION_TYPE":"U","NORAD_CAT_ID":67778,"ELEMENT_SET_NO":999,"REV_AT_EPOCH":415,"BSTAR":0.00100885,"MEAN_MOTION_DOT":0.00036285,"MEAN_MOTION_DDOT":0},{"OBJECT_NAME":"KUIPER-00215","OBJECT_ID":"2026-030R","EPOCH":"2026-03-03T14:16:09.235776","MEAN_MOTION":15.34164337,"ECCENTRICITY":0.00098788,"INCLINATION":51.8828,"RA_OF_ASC_NODE":248.7191,"ARG_OF_PERICENTER":43.0534,"MEAN_ANOMALY":317.1222,"EPHEMERIS_TYPE":0,"CLASSIFICATION_TYPE":"U","NORAD_CAT_ID":67779,"ELEMENT_SET_NO":999,"REV_AT_EPOCH":415,"BSTAR":0.00080583344,"MEAN_MOTION_DOT":0.00026804,"MEAN_MOTION_DDOT":0},{"OBJECT_NAME":"KUIPER-00218","OBJECT_ID":"2026-030S","EPOCH":"2026-03-03T14:03:36.012672","MEAN_MOTION":15.34888543,"ECCENTRICITY":0.00064002,"INCLINATION":51.883,"RA_OF_ASC_NODE":248.6616,"ARG_OF_PERICENTER":34.0577,"MEAN_ANOMALY":326.0818,"EPHEMERIS_TYPE":0,"CLASSIFICATION_TYPE":"U","NORAD_CAT_ID":67780,"ELEMENT_SET_NO":999,"REV_AT_EPOCH":415,"BSTAR":0.0010901986,"MEAN_MOTION_DOT":0.00037272,"MEAN_MOTION_DDOT":0},{"OBJECT_NAME":"KUIPER-00220","OBJECT_ID":"2026-030T","EPOCH":"2026-03-03T14:11:40.275168","MEAN_MOTION":15.34466757,"ECCENTRICITY":0.00081434,"INCLINATION":51.8796,"RA_OF_ASC_NODE":248.6916,"ARG_OF_PERICENTER":39.0718,"MEAN_ANOMALY":321.0854,"EPHEMERIS_TYPE":0,"CLASSIFICATION_TYPE":"U","NORAD_CAT_ID":67781,"ELEMENT_SET_NO":999,"REV_AT_EPOCH":415,"BSTAR":0.0010662818,"MEAN_MOTION_DOT":0.00035964,"MEAN_MOTION_DDOT":0},{"OBJECT_NAME":"KUIPER-00222","OBJECT_ID":"2026-030U","EPOCH":"2026-03-03T14:40:06.261312","MEAN_MOTION":15.32281049,"ECCENTRICITY":0.00176894,"INCLINATION":51.8795,"RA_OF_ASC_NODE":248.8165,"ARG_OF_PERICENTER":41.2105,"MEAN_ANOMALY":319.0211,"EPHEMERIS_TYPE":0,"CLASSIFICATION_TYPE":"U","NORAD_CAT_ID":67782,"ELEMENT_SET_NO":999,"REV_AT_EPOCH":415,"BSTAR":0.00057226195,"MEAN_MOTION_DOT":0.00017852,"MEAN_MOTION_DDOT":0},{"OBJECT_NAME":"KUIPER-00223","OBJECT_ID":"2026-030V","EPOCH":"2026-03-03T14:20:33.710496","MEAN_MOTION":15.33956877,"ECCENTRICITY":0.00121493,"INCLINATION":51.8813,"RA_OF_ASC_NODE":248.7355,"ARG_OF_PERICENTER":43.2526,"MEAN_ANOMALY":316.9411,"EPHEMERIS_TYPE":0,"CLASSIFICATION_TYPE":"U","NORAD_CAT_ID":67783,"ELEMENT_SET_NO":999,"REV_AT_EPOCH":415,"BSTAR":0.00078973599,"MEAN_MOTION_DOT":0.00026104,"MEAN_MOTION_DDOT":0},{"OBJECT_NAME":"KUIPER-00225","OBJECT_ID":"2026-030W","EPOCH":"2026-03-03T13:51:56.792160","MEAN_MOTION":15.35607268,"ECCENTRICITY":0.00039027,"INCLINATION":51.8809,"RA_OF_ASC_NODE":248.6045,"ARG_OF_PERICENTER":23.5564,"MEAN_ANOMALY":336.56,"EPHEMERIS_TYPE":0,"CLASSIFICATION_TYPE":"U","NORAD_CAT_ID":67784,"ELEMENT_SET_NO":999,"REV_AT_EPOCH":415,"BSTAR":0.0010271602,"MEAN_MOTION_DOT":0.00035897,"MEAN_MOTION_DDOT":0},{"OBJECT_NAME":"KUIPER-00226","OBJECT_ID":"2026-030X","EPOCH":"2026-03-03T14:54:30.044448","MEAN_MOTION":15.31335086,"ECCENTRICITY":0.00195391,"INCLINATION":51.8807,"RA_OF_ASC_NODE":248.8811,"ARG_OF_PERICENTER":55.3612,"MEAN_ANOMALY":304.9211,"EPHEMERIS_TYPE":0,"CLASSIFICATION_TYPE":"U","NORAD_CAT_ID":67785,"ELEMENT_SET_NO":999,"REV_AT_EPOCH":415,"BSTAR":-0.00015554033,"MEAN_MOTION_DOT":-5.18e-5,"MEAN_MOTION_DDOT":0}]
